CS1                     
1 49261U 21088B   26068.75173904  .00015722  00000+0  51176-3 0  9998
2 49261  97.3882 132.1684 0014129  78.0335 282.2490 15.31848439245182
STARLINK-35656          
1 66391U 25257M   26068.69123899  .00021179  00000+0  72513-3 0  9995
2 66391  53.1589 219.8493 0000598  71.1473 288.9592 15.30200233 19797
